IRIDIUM 116             
1 43072U 17083C   25355.02619582  .00000214  00000+0  69430-4 0  9990
2 43072  86.3957  36.4674 0002533  93.1399 267.0086 14.34218534418639
IRIDIUM 130             
1 43073U 17083D   25355.20378682  .00000136  00000+0  41641-4 0  9991
2 43073  86.3966  36.6513 0002502  97.6482 262.4998 14.34218779418601
IRIDIUM 151             
1 43074U 17083E   25355.10864784  .00000048  00000+0  10044-4 0  9999
2 43074  86.3962  36.4871 0002259  92.9903 267.1552 14.34218070418611
IRIDIUM 134             
1 43075U 17083F   25355.07694198  .00000221  00000+0  71855-4 0  9996
2 43075  86.3961  36.5058 0002333  98.2990 261.8470 14.34216666418571
IRIDIUM 137             
1 43076U 17083G   25355.15938865  .00000224  00000+0  73090-4 0  9994
2 43076  86.3964  36.5605 0002603  84.9431 275.2061 14.34219243418653
IRIDIUM 141             
1 43077U 17083H   25355.15304544  .00000086  00000+0  23662-4 0  9992
2 43077  86.3958  36.4034 0002059  97.4619 262.6811 14.34218323418655
IRIDIUM 153             
1 43078U 17083J   25355.10522389 -.00000008  00000+0 -10076-4 0  9998
2 43078  86.3965   4.9142 0001816  98.5600 261.5802 14.34217639419755
IRIDIUM 131             
1 43079U 17083K   25355.14036031 -.00000146  00000+0 -59174-4 0  9992
2 43079  86.3964  36.5831 0001991  92.3006 267.8418 14.34217510418587
